start=new Date('2023-03-19T00:00:00.000Z').valueOf();
sats=[{"MEAN_ANOMALY":"279.4445","TLE_LINE1":"1 53655U 22105H   23077.73550527  .00006393  00000-0  50158-3 0  9990","SEMIMAJOR_AXIS":"6941.106","GP_ID":"228406482","CENTER_NAME":"EARTH","COUNTRY_CODE":"US","MEAN_ELEMENT_THEORY":"SGP4","OBJECT_ID":"2022-105H","OBJECT_TYPE":"PAYLOAD","SITE":"AFWTR","ECCENTRICITY":"0.00058910","MEAN_MOTION":"15.01273402","DECAY_DATE":null,"MEAN_MOTION_DDOT":"0.0000000000000","INCLINATION":"97.6532","CLASSIFICATION_TYPE":"U","FILE":"3864479","EPOCH":"2023-03-18T17:39:07.655328","RA_OF_ASC_NODE":"320.1034","ARG_OF_PERICENTER":"80.7446","TLE_LINE2":"2 53655  97.6532 320.1034 0005891  80.7446 279.4445 15.01273402 30152","REV_AT_EPOCH":"3015","NORAD_CAT_ID":"53655","TIME_SYSTEM":"UTC","PERIAPSIS":"558.882","APOAPSIS":"567.060","OBJECT_NAME":"STARLINK-4470","MEAN_MOTION_DOT":"0.00006393","REF_FRAME":"TEME","PERIOD":"95.919","EPHEMERIS_TYPE":"0","BSTAR":"0.00050158000000","ELEMENT_SET_NO":"999","LAUNCH_DATE":"2022-08-31","RCS_SIZE":"MEDIUM"},{"MEAN_ELEMENT_THEORY":"SGP4","MEAN_ANOMALY":"275.2035","TLE_LINE1":"1 53656U 22105J   23077.92830078  .00004091  00000-0  32275-3 0  9997","GP_ID":"228406737","COUNTRY_CODE":"US","CENTER_NAME":"EARTH","SEMIMAJOR_AXIS":"6941.102","ECCENTRICITY":"0.00052930","OBJECT_ID":"2022-105J","SITE":"AFWTR","OBJECT_TYPE":"PAYLOAD","MEAN_MOTION_DDOT":"0.0000000000000","DECAY_DATE":null,"INCLINATION":"97.6542","MEAN_MOTION":"15.01274601","RA_OF_ASC_NODE":"320.2882","ARG_OF_PERICENTER":"84.9793","CLASSIFICATION_TYPE":"U","FILE":"3864479","EPOCH":"2023-03-18T22:16:45.187392","TLE_LINE2":"2 53656  97.6542 320.2882 0005293  84.9793 275.2035 15.01274601 30187","NORAD_CAT_ID":"53656","REV_AT_EPOCH":"3018","MEAN_MOTION_DOT":"0.00004091","OBJECT_NAME":"STARLINK-4466","APOAPSIS":"566.641","TIME_SYSTEM":"UTC","PERIAPSIS":"559.293","PERIOD":"95.918","REF_FRAME":"TEME","ELEMENT_SET_NO":"999","EPHEMERIS_TYPE":"0","BSTAR":"0.00032275000000","RCS_SIZE":"LARGE","LAUNCH_DATE":"2022-08-31"},{"MEAN_ELEMENT_THEORY":"SGP4","SEMIMAJOR_AXIS":"6941.078","CENTER_NAME":"EARTH","GP_ID":"228405490","COUNTRY_CODE":"US","TLE_LINE1":"1 53657U 22105K   23077.93361396  .00010031  00000-0  78372-3 0  9990","MEAN_ANOMALY":"280.3844","ECCENTRICITY":"0.00063190","OBJECT_TYPE":"PAYLOAD","SITE":"AFWTR","OBJECT_ID":"2022-105K","INCLINATION":"97.6537","MEAN_MOTION_DDOT":"0.0000000000000","DECAY_DATE":null,"MEAN_MOTION":"15.01282410","ARG_OF_PERICENTER":"79.8092","RA_OF_ASC_NODE":"320.2963","EPOCH":"2023-03-18T22:24:24.246144","FILE":"3864479","CLASSIFICATION_TYPE":"U","REV_AT_EPOCH":"3018","NORAD_CAT_ID":"53657","TLE_LINE2":"2 53657  97.6537 320.2963 0006319  79.8092 280.3844 15.01282410 30189","OBJECT_NAME":"STARLINK-4469","APOAPSIS":"567.329","MEAN_MOTION_DOT":"0.00010031","PERIAPSIS":"558.557","TIME_SYSTEM":"UTC","EPHEMERIS_TYPE":"0","BSTAR":"0.00078372000000","ELEMENT_SET_NO":"999","REF_FRAME":"TEME","PERIOD":"95.918","RCS_SIZE":"LARGE","LAUNCH_DATE":"2022-08-31"},{"MEAN_ELEMENT_THEORY":"SGP4","MEAN_ANOMALY":"280.5002","TLE_LINE1":"1 53658U 22105L   23077.72810203  .00010634  00000-0  83069-3 0  9992","SEMIMAJOR_AXIS":"6941.096","CENTER_NAME":"EARTH","GP_ID":"228406239","COUNTRY_CODE":"US","ECCENTRICITY":"0.00053800","OBJECT_ID":"2022-105L","OBJECT_TYPE":"PAYLOAD","SITE":"AFWTR","MEAN_MOTION_DDOT":"0.0000000000000","DECAY_DATE":null,"INCLINATION":"97.6550","MEAN_MOTION":"15.01276508","RA_OF_ASC_NODE":"320.0913","ARG_OF_PERICENTER":"79.6828","CLASSIFICATION_TYPE":"U","FILE":"3864479","EPOCH":"2023-03-18T17:28:28.015392","TLE_LINE2":"2 53658  97.6550 320.0913 0005380  79.6828 280.5002 15.01276508 30156","NORAD_CAT_ID":"53658","REV_AT_EPOCH":"3015","OBJECT_NAME":"STARLINK-4452","APOAPSIS":"566.695","MEAN_MOTION_DOT":"0.00010634","TIME_SYSTEM":"UTC","PERIAPSIS":"559.227","REF_FRAME":"TEME","PERIOD":"95.918","EPHEMERIS_TYPE":"0","BSTAR":"0.00083069000000","ELEMENT_SET_NO":"999","RCS_SIZE":"LARGE","LAUNCH_DATE":"2022-08-31"},{"EPHEMERIS_TYPE":"0","BSTAR":"0.00017878000000","ELEMENT_SET_NO":"999","REF_FRAME":"TEME","PERIOD":"95.919","RCS_SIZE":"LARGE","LAUNCH_DATE":"2022-08-31","NORAD_CAT_ID":"53659","REV_AT_EPOCH":"3018","TLE_LINE2":"2 53659  97.6544 320.2900 0005541  78.9890 281.1957 15.01269776 30186","OBJECT_NAME":"STARLINK-4463","APOAPSIS":"566.828","MEAN_MOTION_DOT":"0.00002239","PERIAPSIS":"559.136","TIME_SYSTEM":"UTC","INCLINATION":"97.6544","MEAN_MOTION_DDOT":"0.0000000000000","DECAY_DATE":null,"MEAN_MOTION":"15.01269776","ARG_OF_PERICENTER":"78.9890","RA_OF_ASC_NODE":"320.2900","EPOCH":"2023-03-18T22:19:03.615744","FILE":"3864479","CLASSIFICATION_TYPE":"U","MEAN_ELEMENT_THEORY":"SGP4","SEMIMAJOR_AXIS":"6941.117","CENTER_NAME":"EARTH","GP_ID":"228406983","COUNTRY_CODE":"US","MEAN_ANOMALY":"281.1957","TLE_LINE1":"1 53659U 22105M   23077.92990296  .00002239  00000-0  17878-3 0  9993","ECCENTRICITY":"0.00055410","OBJECT_TYPE":"PAYLOAD","SITE":"AFWTR","OBJECT_ID":"2022-105M"},{"TLE_LINE1":"1 53660U 22105N   23077.72254581  .00014675  00000-0  11439-2 0  9996","MEAN_ANOMALY":"267.9489","CENTER_NAME":"EARTH","GP_ID":"228407238","COUNTRY_CODE":"US","SEMIMAJOR_AXIS":"6941.072","MEAN_ELEMENT_THEORY":"SGP4","OBJECT_ID":"2022-105N","SITE":"AFWTR","OBJECT_TYPE":"PAYLOAD","ECCENTRICITY":"0.00036170","MEAN_MOTION":"15.01284134","MEAN_MOTION_DDOT":"0.0000000000000","DECAY_DATE":null,"INCLINATION":"97.6549","CLASSIFICATION_TYPE":"U","EPOCH":"2023-03-18T17:20:27.957984","FILE":"3864479","RA_OF_ASC_NODE":"320.0850","ARG_OF_PERICENTER":"92.2149","TLE_LINE2":"2 53660  97.6549 320.0850 0003617  92.2149 267.9489 15.01284134 30157","NORAD_CAT_ID":"53660","REV_AT_EPOCH":"3015","TIME_SYSTEM":"UTC","PERIAPSIS":"560.427","MEAN_MOTION_DOT":"0.00014675","OBJECT_NAME":"STARLINK-4473","APOAPSIS":"565.448","PERIOD":"95.918","REF_FRAME":"TEME","ELEMENT_SET_NO":"999","EPHEMERIS_TYPE":"0","BSTAR":"0.00114390000000","LAUNCH_DATE":"2022-08-31","RCS_SIZE":"LARGE"},{"INCLINATION":"97.6547","DECAY_DATE":null,"MEAN_MOTION_DDOT":"0.0000000000000","MEAN_MOTION":"15.01280155","ARG_OF_PERICENTER":"84.3422","RA_OF_ASC_NODE":"320.0886","EPOCH":"2023-03-18T17:25:48.067392","FILE":"3864479","CLASSIFICATION_TYPE":"U","MEAN_ELEMENT_THEORY":"SGP4","SEMIMAJOR_AXIS":"6941.085","COUNTRY_CODE":"US","GP_ID":"228405991","CENTER_NAME":"EARTH","TLE_LINE1":"1 53661U 22105P   23077.72625078  .00012433  00000-0  97009-3 0  9998","MEAN_ANOMALY":"275.8414","ECCENTRICITY":"0.00053720","OBJECT_TYPE":"PAYLOAD","SITE":"AFWTR","OBJECT_ID":"2022-105P","BSTAR":"0.00097009000000","EPHEMERIS_TYPE":"0","ELEMENT_SET_NO":"999","REF_FRAME":"TEME","PERIOD":"95.918","RCS_SIZE":"LARGE","LAUNCH_DATE":"2022-08-31","NORAD_CAT_ID":"53661","REV_AT_EPOCH":"3015","TLE_LINE2":"2 53661  97.6547 320.0886 0005372  84.3422 275.8414 15.01280155 30156","APOAPSIS":"566.678","OBJECT_NAME":"STARLINK-4472","MEAN_MOTION_DOT":"0.00012433","PERIAPSIS":"559.221","TIME_SYSTEM":"UTC"},{"RA_OF_ASC_NODE":"320.2769","ARG_OF_PERICENTER":"89.7490","CLASSIFICATION_TYPE":"U","EPOCH":"2023-03-18T22:03:03.448224","FILE":"3864479","DECAY_DATE":null,"MEAN_MOTION_DDOT":"0.0000000000000","INCLINATION":"97.6553","MEAN_MOTION":"15.01286970","ECCENTRICITY":"0.00015240","OBJECT_ID":"2022-105Q","SITE":"AFWTR","OBJECT_TYPE":"PAYLOAD","MEAN_ELEMENT_THEORY":"SGP4","MEAN_ANOMALY":"270.3909","TLE_LINE1":"1 53662U 22105Q   23077.91878991  .00011281  00000-0  88082-3 0  9995","CENTER_NAME":"EARTH","GP_ID":"228405739","COUNTRY_CODE":"US","SEMIMAJOR_AXIS":"6941.064","RCS_SIZE":"LARGE","LAUNCH_DATE":"2022-08-31","PERIOD":"95.918","REF_FRAME":"TEME","ELEMENT_SET_NO":"999","EPHEMERIS_TYPE":"0","BSTAR":"0.00088082000000","MEAN_MOTION_DOT":"0.00011281","OBJECT_NAME":"STARLINK-4357","APOAPSIS":"563.987","TIME_SYSTEM":"UTC","PERIAPSIS":"561.871","TLE_LINE2":"2 53662  97.6553 320.2769 0001524  89.7490 270.3909 15.01286970 30188","REV_AT_EPOCH":"3018","NORAD_CAT_ID":"53662"},{"REF_FRAME":"TEME","PERIOD":"95.917","BSTAR":"0.00096118000000","EPHEMERIS_TYPE":"0","ELEMENT_SET_NO":"999","LAUNCH_DATE":"2022-08-31","RCS_SIZE":"LARGE","TLE_LINE2":"2 53663  97.6562 320.2838 0004640  91.8253 268.3502 15.01291244 30185","NORAD_CAT_ID":"53663","REV_AT_EPOCH":"3018","TIME_SYSTEM":"UTC","PERIAPSIS":"559.695","OBJECT_NAME":"STARLINK-4457","APOAPSIS":"566.136","MEAN_MOTION_DOT":"0.00012321","MEAN_MOTION":"15.01291244","MEAN_MOTION_DDOT":"0.0000000000000","DECAY_DATE":null,"INCLINATION":"97.6562","CLASSIFICATION_TYPE":"U","FILE":"3864479","EPOCH":"2023-03-18T22:11:03.568704","RA_OF_ASC_NODE":"320.2838","ARG_OF_PERICENTER":"91.8253","TLE_LINE1":"1 53663U 22105R   23077.92434686  .00012321  00000-0  96118-3 0  9991","MEAN_ANOMALY":"268.3502","SEMIMAJOR_AXIS":"6941.051","GP_ID":"228406483","COUNTRY_CODE":"US","CENTER_NAME":"EARTH","MEAN_ELEMENT_THEORY":"SGP4","OBJECT_ID":"2022-105R","OBJECT_TYPE":"PAYLOAD","SITE":"AFWTR","ECCENTRICITY":"0.00046400"},{"ELEMENT_SET_NO":"999","BSTAR":"0.00086876000000","EPHEMERIS_TYPE":"0","PERIOD":"95.918","REF_FRAME":"TEME","RCS_SIZE":"LARGE","LAUNCH_DATE":"2022-08-31","REV_AT_EPOCH":"3018","NORAD_CAT_ID":"53664","TLE_LINE2":"2 53664  97.6550 320.2736 0001537 103.1734 256.9662 15.01284774 30183","MEAN_MOTION_DOT":"0.00011124","APOAPSIS":"564.002","OBJECT_NAME":"STARLINK-4471","PERIAPSIS":"561.869","TIME_SYSTEM":"UTC","INCLINATION":"97.6550","MEAN_MOTION_DDOT":"0.0000000000000","DECAY_DATE":null,"MEAN_MOTION":"15.01284774","ARG_OF_PERICENTER":"103.1734","RA_OF_ASC_NODE":"320.2736","EPOCH":"2023-03-18T22:00:23.364576","FILE":"3864479","CLASSIFICATION_TYPE":"U","MEAN_ELEMENT_THEORY":"SGP4","GP_ID":"228406738","CENTER_NAME":"EARTH","COUNTRY_CODE":"US","SEMIMAJOR_AXIS":"6941.070","MEAN_ANOMALY":"256.9662","TLE_LINE1":"1 53664U 22105S   23077.91693709  .00011124  00000-0  86876-3 0  9994","ECCENTRICITY":"0.00015370","SITE":"AFWTR","OBJECT_TYPE":"PAYLOAD","OBJECT_ID":"2022-105S"}];
